[
    {
        "Altitude(m)": 702723.9601146573,
        "Argument of Periapsis(deg)": 0.0034170363559881197,
        "Eccentricity": 0.0,
        "Inclination(deg)": 45.0,
        "Latitude(deg)": 9.076592786967852,
        "Longitude(deg)": 110.64661417595077,
        "Mean Anomaly(deg)": 167.09636499424425,
        "RAAN(deg)": 39.996774417562534,
        "Satellite Name": "Constellation 1 186",
        "Satellite Number": 186,
        "Semi-Major Axis(m)": 7083131.272910544,
        "Time(s)": 57
    },
    {
        "Altitude(m)": 702725.2263872698,
        "Argument of Periapsis(deg)": 0.003476984362233526,
        "Eccentricity": 0.0,
        "Inclination(deg)": 45.0,
        "Latitude(deg)": 9.03392253334363,
        "Longitude(deg)": 110.68645562781583,
        "Mean Anomaly(deg)": 167.1570661344942,
        "RAAN(deg)": 39.99671782839697,
        "Satellite Name": "Constellation 1 186",
        "Satellite Number": 186,
        "Semi-Major Axis(m)": 7083131.272910544,
        "Time(s)": 58
    },
    {
        "Altitude(m)": 702726.5126025978,
        "Argument of Periapsis(deg)": 0.003536932368478932,
        "Eccentricity": 0.0,
        "Inclination(deg)": 45.0,
        "Latitude(deg)": 8.99124696615804,
        "Longitude(deg)": 110.72628653313423,
        "Mean Anomaly(deg)": 167.2177672747441,
        "RAAN(deg)": 39.99666123923139,
        "Satellite Name": "Constellation 1 186",
        "Satellite Number": 186,
        "Semi-Major Axis(m)": 7083131.272910544,
        "Time(s)": 59
    },
    {
        "Altitude(m)": 702727.8187733822,
        "Argument of Periapsis(deg)": 0.003596880374724337,
        "Eccentricity": 0.0,
        "Inclination(deg)": 45.0,
        "Latitude(deg)": 8.948566112435138,
        "Longitude(deg)": 110.76610727878216,
        "Mean Anomaly(deg)": 167.27846841499397,
        "RAAN(deg)": 39.99660465006583,
        "Satellite Name": "Constellation 1 186",
        "Satellite Number": 186,
        "Semi-Major Axis(m)": 7083131.272910544,
        "Time(s)": 60
    },
    {
        "Altitude(m)": 702729.1449122693,
        "Argument of Periapsis(deg)": 0.0036568283809697427,
        "Eccentricity": 0.0,
        "Inclination(deg)": 45.0,
        "Latitude(deg)": 8.905879999179408,
        "Longitude(deg)": 110.8059177473227,
        "Mean Anomaly(deg)": 167.33916955524384,
        "RAAN(deg)": 39.99654806090026,
        "Satellite Name": "Constellation 1 186",
        "Satellite Number": 186,
        "Semi-Major Axis(m)": 7083131.272910544,
        "Time(s)": 61
    },
    {
        "Altitude(m)": 702730.4910318209,
        "Argument of Periapsis(deg)": 0.003716776387215149,
        "Eccentricity": 0.0,
        "Inclination(deg)": 45.0,
        "Latitude(deg)": 8.863188653375481,
        "Longitude(deg)": 110.84571798939467,
        "Mean Anomaly(deg)": 167.39987069549377,
        "RAAN(deg)": 39.99649147173469,
        "Satellite Name": "Constellation 1 186",
        "Satellite Number": 186,
        "Semi-Major Axis(m)": 7083131.272910544,
        "Time(s)": 62
    },
    {
        "Altitude(m)": 702731.8571445167,
        "Argument of Periapsis(deg)": 0.003776724393460554,
        "Eccentricity": 0.0,
        "Inclination(deg)": 45.0,
        "Latitude(deg)": 8.820492101988334,
        "Longitude(deg)": 110.88550805561532,
        "Mean Anomaly(deg)": 167.46057183574365,
        "RAAN(deg)": 39.99643488256912,
        "Satellite Name": "Constellation 1 186",
        "Satellite Number": 186,
        "Semi-Major Axis(m)": 7083131.272910544,
        "Time(s)": 63
    },
    {
        "Altitude(m)": 702733.2432627397,
        "Argument of Periapsis(deg)": 0.003836672399705959,
        "Eccentricity": 0.0,
        "Inclination(deg)": 45.0,
        "Latitude(deg)": 8.777790371963318,
        "Longitude(deg)": 110.92528799658066,
        "Mean Anomaly(deg)": 167.52127297599358,
        "RAAN(deg)": 39.99637829340355,
        "Satellite Name": "Constellation 1 186",
        "Satellite Number": 186,
        "Semi-Major Axis(m)": 7083131.272910544,
        "Time(s)": 64
    },
    {
        "Altitude(m)": 702734.6493987973,
        "Argument of Periapsis(deg)": 0.003896620405951365,
        "Eccentricity": 0.0,
        "Inclination(deg)": 45.0,
        "Latitude(deg)": 8.735083490226302,
        "Longitude(deg)": 110.96505786286549,
        "Mean Anomaly(deg)": 167.58197411624343,
        "RAAN(deg)": 39.99632170423798,
        "Satellite Name": "Constellation 1 186",
        "Satellite Number": 186,
        "Semi-Major Axis(m)": 7083131.272910544,
        "Time(s)": 65
    },
    {
        "Altitude(m)": 702736.0755649029,
        "Argument of Periapsis(deg)": 0.003956568412196771,
        "Eccentricity": 0.0,
        "Inclination(deg)": 45.0,
        "Latitude(deg)": 8.692371483683834,
        "Longitude(deg)": 111.00481770502331,
        "Mean Anomaly(deg)": 167.64267525649336,
        "RAAN(deg)": 39.99626511507241,
        "Satellite Name": "Constellation 1 186",
        "Satellite Number": 186,
        "Semi-Major Axis(m)": 7083131.272910544,
        "Time(s)": 66
    },
    {
        "Altitude(m)": 702737.5217731947,
        "Argument of Periapsis(deg)": 0.004016516418442176,
        "Eccentricity": 0.0,
        "Inclination(deg)": 45.0,
        "Latitude(deg)": 8.649654379223234,
        "Longitude(deg)": 111.04456740548937,
        "Mean Anomaly(deg)": 167.70337639674324,
        "RAAN(deg)": 39.99620852590684,
        "Satellite Name": "Constellation 1 186",
        "Satellite Number": 186,
        "Semi-Major Axis(m)": 7083131.272910544,
        "Time(s)": 67
    },
    {
        "Altitude(m)": 702738.9880357063,
        "Argument of Periapsis(deg)": 0.004076464424687581,
        "Eccentricity": 0.0,
        "Inclination(deg)": 45.0,
        "Latitude(deg)": 8.606932203712368,
        "Longitude(deg)": 111.0843073509695,
        "Mean Anomaly(deg)": 167.76407753699317,
        "RAAN(deg)": 39.99615193674128,
        "Satellite Name": "Constellation 1 186",
        "Satellite Number": 186,
        "Semi-Major Axis(m)": 7083131.272910544,
        "Time(s)": 68
    },
    {
        "Altitude(m)": 702740.4743644032,
        "Argument of Periapsis(deg)": 0.004136412430932987,
        "Eccentricity": 0.0,
        "Inclination(deg)": 45.0,
        "Latitude(deg)": 8.56420498400028,
        "Longitude(deg)": 111.12403742385702,
        "Mean Anomaly(deg)": 167.82477867724305,
        "RAAN(deg)": 39.996095347575704,
        "Satellite Name": "Constellation 1 186",
        "Satellite Number": 186,
        "Semi-Major Axis(m)": 7083131.272910544,
        "Time(s)": 69
    },
    {
        "Altitude(m)": 702741.9807711447,
        "Argument of Periapsis(deg)": 0.004196360437178394,
        "Eccentricity": 0.0,
        "Inclination(deg)": 45.0,
        "Latitude(deg)": 8.521472746916958,
        "Longitude(deg)": 111.16375767462179,
        "Mean Anomaly(deg)": 167.88547981749298,
        "RAAN(deg)": 39.99603875841013,
        "Satellite Name": "Constellation 1 186",
        "Satellite Number": 186,
        "Semi-Major Axis(m)": 7083131.272910544,
        "Time(s)": 70
    },
    {
        "Altitude(m)": 702743.507267725,
        "Argument of Periapsis(deg)": 0.004256308443423799,
        "Eccentricity": 0.0,
        "Inclination(deg)": 45.0,
        "Latitude(deg)": 8.478735519273522,
        "Longitude(deg)": 111.20346815371275,
        "Mean Anomaly(deg)": 167.94618095774283,
        "RAAN(deg)": 39.99598216924456,
        "Satellite Name": "Constellation 1 186",
        "Satellite Number": 186,
        "Semi-Major Axis(m)": 7083131.272910544,
        "Time(s)": 71
    },
    {
        "Altitude(m)": 702745.0538658324,
        "Argument of Periapsis(deg)": 0.004316256449669204,
        "Eccentricity": 0.0,
        "Inclination(deg)": 45.0,
        "Latitude(deg)": 8.435993327862214,
        "Longitude(deg)": 111.24316891155833,
        "Mean Anomaly(deg)": 168.00688209799276,
        "RAAN(deg)": 39.995925580078996,
        "Satellite Name": "Constellation 1 186",
        "Satellite Number": 186,
        "Semi-Major Axis(m)": 7083131.272910544,
        "Time(s)": 72
    },
    {
        "Altitude(m)": 702746.6205770833,
        "Argument of Periapsis(deg)": 0.00437620445591461,
        "Eccentricity": 0.0,
        "Inclination(deg)": 45.0,
        "Latitude(deg)": 8.393246199456703,
        "Longitude(deg)": 111.28285999856628,
        "Mean Anomaly(deg)": 168.06758323824263,
        "RAAN(deg)": 39.99586899091342,
        "Satellite Name": "Constellation 1 186",
        "Satellite Number": 186,
        "Semi-Major Axis(m)": 7083131.272910544,
        "Time(s)": 73
    },
    {
        "Altitude(m)": 702748.2074129935,
        "Argument of Periapsis(deg)": 0.004436152462160016,
        "Eccentricity": 0.0,
        "Inclination(deg)": 45.0,
        "Latitude(deg)": 8.350494160812014,
        "Longitude(deg)": 111.32254129702697,
        "Mean Anomaly(deg)": 168.12828437849257,
        "RAAN(deg)": 39.995812401747855,
        "Satellite Name": "Constellation 1 186",
        "Satellite Number": 186,
        "Semi-Major Axis(m)": 7083131.272910544,
        "Time(s)": 74
    },
    {
        "Altitude(m)": 702749.814385,
        "Argument of Periapsis(deg)": 0.0044961004684054215,
        "Eccentricity": 0.0,
        "Inclination(deg)": 45.0,
        "Latitude(deg)": 8.307737238664634,
        "Longitude(deg)": 111.36221319350142,
        "Mean Anomaly(deg)": 168.1889855187424,
        "RAAN(deg)": 39.99575581258229,
        "Satellite Name": "Constellation 1 186",
        "Satellite Number": 186,
        "Semi-Major Axis(m)": 7083131.272910544,
        "Time(s)": 75
    }
]